ONEWEB-0687             
1 61595U 24188B   25088.50002315 -.00978052  00000+0 -17153+0 0  9996
2 61595  86.6752 101.7332 0006218  42.5492 316.1345 14.70668402  5749
ONEWEB-0688             
1 61596U 24188C   25088.91668981 -.00979263  00000+0 -16574+0 0  9990
2 61596  86.6670 101.5679 0005484  48.9455  33.3815 14.72224247 24832
ONEWEB-0689             
1 61597U 24188D   25088.91668981  .00000014  00000+0  00000+0 0  9995
2 61597  87.7961 109.6925 0004400  53.4925 269.4082 13.31581298 24330
ONEWEB-0690             
1 61598U 24188E   25088.91668981  .00000015  00000+0  00000+0 0  9997
2 61598  87.8713 109.6515 0009322  56.9375 358.4239 13.65673947 24453
ONEWEB-0691             
1 61599U 24188F   25088.83334491  .00000014  00000+0  00000+0 0  9994
2 61599  87.7963 109.7034 0006701  39.7928  91.9580 13.33110346 24494
ONEWEB-0692             
1 61600U 24188G   25088.91668981  .00000014  00000+0  00000+0 0  9990
2 61600  87.7937 109.6930 0005104  67.7698  77.2226 13.32846734 24437
ONEWEB-0693             
1 61601U 24188H   25088.91668981 -.00960624  00000+0 -18353+0 0  9995
2 61601  86.6969 101.4669 0004968  71.6481 235.7950 14.66863334 24990
ONEWEB-0695             
1 61602U 24188J   25088.91668981  .00000014  00000+0  00000+0 0  9992
2 61602  87.7685 109.6998 0004496  62.9030 290.1802 13.33895400 24467
